{
    "links": {
        "self": "http://www.neowsapp.com/rest/v1/neo/3547772?api_key=iIulBulltgU6a56xZRHN4H3l9WmuAYTsLGpBGhQ2"
    },
    "id": "3547772",
    "neo_reference_id": "3547772",
    "name": "(2010 TF)",
    "designation": "2010 TF",
    "nasa_jpl_url": "http://ssd.jpl.nasa.gov/sbdb.cgi?sstr=3547772",
    "absolute_magnitude_h": 25.6,
    "estimated_diameter": {
        "kilometers": {
            "estimated_diameter_min": 0.0201629919,
            "estimated_diameter_max": 0.0450858206
        },
        "meters": {
            "estimated_diameter_min": 20.1629919443,
            "estimated_diameter_max": 45.0858206172
        },
        "miles": {
            "estimated_diameter_min": 0.0125286985,
            "estimated_diameter_max": 0.0280150214
        },
        "feet": {
            "estimated_diameter_min": 66.1515504905,
            "estimated_diameter_max": 147.9193637137
        }
    },
    "is_potentially_hazardous_asteroid": false,
    "close_approach_data": [
        {
            "close_approach_date": "2010-10-03",
            "close_approach_date_full": "2010-Oct-03 02:20",
            "epoch_date_close_approach": 1286072400000,
            "relative_velocity": {
                "kilometers_per_second": "13.092052227",
                "kilometers_per_hour": "47131.3880173454",
                "miles_per_hour": "29285.6116266667"
            },
            "miss_distance": {
                "astronomical": "0.0645484638",
                "lunar": "25.1093524182",
                "kilometers": "9656312.696252106",
                "miles": "6000154.4785908228"
            },
            "orbiting_body": "Earth"
        },
        {
            "close_approach_date": "2011-02-01",
            "close_approach_date_full": "2011-Feb-01 01:11",
            "epoch_date_close_approach": 1296522660000,
            "relative_velocity": {
                "kilometers_per_second": "9.578239937",
                "kilometers_per_hour": "34481.6637730876",
                "miles_per_hour": "21425.5649150054"
            },
            "miss_distance": {
                "astronomical": "0.4279275173",
                "lunar": "166.4638042297",
                "kilometers": "64017045.102468151",
                "miles": "39778347.2802004438"
            },
            "orbiting_body": "Earth"
        }
    ],
    "orbital_data": {
        "orbit_id": "6",
        "orbit_determination_date": "2017-04-06 08:56:28",
        "first_observation_date": "2010-10-01",
        "last_observation_date": "2010-10-02",
        "data_arc_in_days": 1,
        "observations_used": 29,
        "orbit_uncertainty": "9",
        "minimum_orbit_intersection": ".0640406",
        "jupiter_tisserand_invariant": "4.545",
        "epoch_osculation": "2455471.5",
        "eccentricity": ".3075450138402017",
        "semi_major_axis": "1.437006785261746",
        "inclination": "22.46379288700572",
        "ascending_node_longitude": "186.0325395376173",
        "orbital_period": "629.197017109428",
        "perihelion_distance": ".9950625135999588",
        "perihelion_argument": "225.8712225419026",
        "aphelion_distance": "1.878951056923534",
        "perihelion_time": "2455511.599207283140",
        "mean_anomaly": "337.0569245730868",
        "mean_motion": ".5721578300766005",
        "equinox": "J2000",
        "orbit_class": {
            "orbit_class_type": "APO",
            "orbit_class_description": "Near-Earth asteroid orbits which cross the Earth’s orbit similar to that of 1862 Apollo",
            "orbit_class_range": "a (semi-major axis) > 1.0 AU; q (perihelion) < 1.017 AU"
        }
    },
    "is_sentry_object": false
}